{"fetched_at":"2026-07-20T18:28:50.031Z","source":"https://celestrak.org/NORAD/elements/gp.php?GROUP=kuiper&FORMAT=JSON","constellation":"kuiper","records":[{"OBJECT_NAME":"KUIPER-00589","OBJECT_ID":"2026-151E","EPOCH":"2026-07-20T06:10:07.962240","CLASSIFICATION_TYPE":"U","MEAN_MOTION":15.3627997,"ECCENTRICITY":0.00031958,"INCLINATION":51.876,"RA_OF_ASC_NODE":155.914,"ARG_OF_PERICENTER":140.5115,"MEAN_ANOMALY":219.6104,"EPHEMERIS_TYPE":0,"NORAD_CAT_ID":69767,"ELEMENT_SET_NO":999,"REV_AT_EPOCH":279,"BSTAR":-0.010857927,"MEAN_MOTION_DOT":-0.00371906,"MEAN_MOTION_DDOT":0},{"OBJECT_NAME":"KUIPER-00598","OBJECT_ID":"2026-151F","EPOCH":"2026-07-20T06:00:04.000320","CLASSIFICATION_TYPE":"U","MEAN_MOTION":15.34310036,"ECCENTRICITY":0.00083175,"INCLINATION":51.8648,"RA_OF_ASC_NODE":156.2076,"ARG_OF_PERICENTER":178.0238,"MEAN_ANOMALY":10.2557,"EPHEMERIS_TYPE":0,"NORAD_CAT_ID":69768,"ELEMENT_SET_NO":999,"REV_AT_EPOCH":333,"BSTAR":0.0011556361,"MEAN_MOTION_DOT":0.00038831,"MEAN_MOTION_DDOT":0},{"OBJECT_NAME":"KUIPER-00604","OBJECT_ID":"2026-151G","EPOCH":"2026-07-20T05:55:17.229216","CLASSIFICATION_TYPE":"U","MEAN_MOTION":15.3831579,"ECCENTRICITY":0.00027165,"INCLINATION":51.8802,"RA_OF_ASC_NODE":155.8461,"ARG_OF_PERICENTER":120.8147,"MEAN_ANOMALY":239.3108,"EPHEMERIS_TYPE":0,"NORAD_CAT_ID":69769,"ELEMENT_SET_NO":999,"REV_AT_EPOCH":279,"BSTAR":0.00025018299,"MEAN_MOTION_DOT":0.00009215,"MEAN_MOTION_DDOT":0},{"OBJECT_NAME":"KUIPER-00609","OBJECT_ID":"2026-151H","EPOCH":"2026-07-20T05:48:22.220640","CLASSIFICATION_TYPE":"U","MEAN_MOTION":15.38707862,"ECCENTRICITY":0.00012729,"INCLINATION":51.8804,"RA_OF_ASC_NODE":155.8143,"ARG_OF_PERICENTER":63.9706,"MEAN_ANOMALY":296.1412,"EPHEMERIS_TYPE":0,"NORAD_CAT_ID":69770,"ELEMENT_SET_NO":999,"REV_AT_EPOCH":279,"BSTAR":0.00022253151,"MEAN_MOTION_DOT":0.0000826,"MEAN_MOTION_DDOT":0},{"OBJECT_NAME":"KUIPER-00611","OBJECT_ID":"2026-151J","EPOCH":"2026-07-20T05:51:42.989184","CLASSIFICATION_TYPE":"U","MEAN_MOTION":15.38523167,"ECCENTRICITY":0.00016031,"INCLINATION":51.8808,"RA_OF_ASC_NODE":155.8257,"ARG_OF_PERICENTER":115.225,"MEAN_ANOMALY":244.8904,"EPHEMERIS_TYPE":0,"NORAD_CAT_ID":69771,"ELEMENT_SET_NO":999,"REV_AT_EPOCH":279,"BSTAR":0.00021234832,"MEAN_MOTION_DOT":0.00007814,"MEAN_MOTION_DDOT":0},{"OBJECT_NAME":"KUIPER-00612","OBJECT_ID":"2026-151K","EPOCH":"2026-07-20T06:00:17.029440","CLASSIFICATION_TYPE":"U","MEAN_MOTION":15.38023691,"ECCENTRICITY":0.00036576,"INCLINATION":51.8793,"RA_OF_ASC_NODE":155.8697,"ARG_OF_PERICENTER":133.9585,"MEAN_ANOMALY":226.1704,"EPHEMERIS_TYPE":0,"NORAD_CAT_ID":69772,"ELEMENT_SET_NO":999,"REV_AT_EPOCH":279,"BSTAR":0.00035809696,"MEAN_MOTION_DOT":0.00013239,"MEAN_MOTION_DDOT":0},{"OBJECT_NAME":"KUIPER-00614","OBJECT_ID":"2026-151L","EPOCH":"2026-07-20T05:56:45.223296","CLASSIFICATION_TYPE":"U","MEAN_MOTION":15.38227164,"ECCENTRICITY":0.0002617,"INCLINATION":51.8802,"RA_OF_ASC_NODE":155.8512,"ARG_OF_PERICENTER":136.9156,"MEAN_ANOMALY":223.2037,"EPHEMERIS_TYPE":0,"NORAD_CAT_ID":69773,"ELEMENT_SET_NO":999,"REV_AT_EPOCH":279,"BSTAR":0.00031241197,"MEAN_MOTION_DOT":0.00011574,"MEAN_MOTION_DDOT":0},{"OBJECT_NAME":"KUIPER-00615","OBJECT_ID":"2026-151M","EPOCH":"2026-07-20T06:12:17.220960","CLASSIFICATION_TYPE":"U","MEAN_MOTION":15.37300031,"ECCENTRICITY":0.00060209,"INCLINATION":51.8782,"RA_OF_ASC_NODE":155.9235,"ARG_OF_PERICENTER":164.427,"MEAN_ANOMALY":195.6903,"EPHEMERIS_TYPE":0,"NORAD_CAT_ID":69774,"ELEMENT_SET_NO":999,"REV_AT_EPOCH":279,"BSTAR":0.00023917499,"MEAN_MOTION_DOT":0.00008499,"MEAN_MOTION_DDOT":0},{"OBJECT_NAME":"KUIPER-00616","OBJECT_ID":"2026-151N","EPOCH":"2026-07-20T05:53:48.190560","CLASSIFICATION_TYPE":"U","MEAN_MOTION":15.38413204,"ECCENTRICITY":0.0002693,"INCLINATION":51.879,"RA_OF_ASC_NODE":155.8412,"ARG_OF_PERICENTER":130.5594,"MEAN_ANOMALY":229.5628,"EPHEMERIS_TYPE":0,"NORAD_CAT_ID":69775,"ELEMENT_SET_NO":999,"REV_AT_EPOCH":279,"BSTAR":0.00057487854,"MEAN_MOTION_DOT":0.00021794,"MEAN_MOTION_DDOT":0},{"OBJECT_NAME":"KUIPER-00617","OBJECT_ID":"2026-151P","EPOCH":"2026-07-20T06:02:35.443104","CLASSIFICATION_TYPE":"U","MEAN_MOTION":15.37864574,"ECCENTRICITY":0.00038576,"INCLINATION":51.8803,"RA_OF_ASC_NODE":155.8794,"ARG_OF_PERICENTER":153.1279,"MEAN_ANOMALY":206.9908,"EPHEMERIS_TYPE":0,"NORAD_CAT_ID":69776,"ELEMENT_SET_NO":999,"REV_AT_EPOCH":279,"BSTAR":0.00031468982,"MEAN_MOTION_DOT":0.00011522,"MEAN_MOTION_DDOT":0},{"OBJECT_NAME":"KUIPER-00619","OBJECT_ID":"2026-151Q","EPOCH":"2026-07-20T05:50:00.158496","CLASSIFICATION_TYPE":"U","MEAN_MOTION":15.38618287,"ECCENTRICITY":0.00016992,"INCLINATION":51.8806,"RA_OF_ASC_NODE":155.823,"ARG_OF_PERICENTER":83.2699,"MEAN_ANOMALY":276.8482,"EPHEMERIS_TYPE":0,"NORAD_CAT_ID":69777,"ELEMENT_SET_NO":999,"REV_AT_EPOCH":279,"BSTAR":0.00035869048,"MEAN_MOTION_DOT":0.00013526,"MEAN_MOTION_DDOT":0},{"OBJECT_NAME":"KUIPER-00621","OBJECT_ID":"2026-151R","EPOCH":"2026-07-20T02:46:37.558272","CLASSIFICATION_TYPE":"U","MEAN_MOTION":15.39219047,"ECCENTRICITY":0.00070888,"INCLINATION":51.8809,"RA_OF_ASC_NODE":156.4708,"ARG_OF_PERICENTER":216.8278,"MEAN_ANOMALY":143.2223,"EPHEMERIS_TYPE":0,"NORAD_CAT_ID":69778,"ELEMENT_SET_NO":999,"REV_AT_EPOCH":277,"BSTAR":0.017767862,"MEAN_MOTION_DOT":0.00754204,"MEAN_MOTION_DDOT":0},{"OBJECT_NAME":"KUIPER-00622","OBJECT_ID":"2026-151S","EPOCH":"2026-07-20T06:16:08.192352","CLASSIFICATION_TYPE":"U","MEAN_MOTION":15.36992197,"ECCENTRICITY":0.00069333,"INCLINATION":51.8741,"RA_OF_ASC_NODE":155.939,"ARG_OF_PERICENTER":163.9431,"MEAN_ANOMALY":196.1776,"EPHEMERIS_TYPE":0,"NORAD_CAT_ID":69779,"ELEMENT_SET_NO":999,"REV_AT_EPOCH":279,"BSTAR":0.00031334974,"MEAN_MOTION_DOT":0.00011148,"MEAN_MOTION_DDOT":0},{"OBJECT_NAME":"KUIPER-00623","OBJECT_ID":"2026-151T","EPOCH":"2026-07-17T06:22:24.548160","CLASSIFICATION_TYPE":"U","MEAN_MOTION":15.37672053,"ECCENTRICITY":0.0006129,"INCLINATION":51.8777,"RA_OF_ASC_NODE":170.365,"ARG_OF_PERICENTER":146.6,"MEAN_ANOMALY":213.5375,"EPHEMERIS_TYPE":0,"NORAD_CAT_ID":69780,"ELEMENT_SET_NO":999,"REV_AT_EPOCH":233,"BSTAR":0.003498,"MEAN_MOTION_DOT":0.00133416,"MEAN_MOTION_DDOT":0},{"OBJECT_NAME":"KUIPER-00626","OBJECT_ID":"2026-151U","EPOCH":"2026-07-20T06:38:33.692640","CLASSIFICATION_TYPE":"U","MEAN_MOTION":15.34653537,"ECCENTRICITY":0.00101132,"INCLINATION":51.8726,"RA_OF_ASC_NODE":156.0382,"ARG_OF_PERICENTER":180.8765,"MEAN_ANOMALY":179.2204,"EPHEMERIS_TYPE":0,"NORAD_CAT_ID":69781,"ELEMENT_SET_NO":999,"REV_AT_EPOCH":279,"BSTAR":0.00043291082,"MEAN_MOTION_DOT":0.00014427,"MEAN_MOTION_DDOT":0},{"OBJECT_NAME":"KUIPER-00627","OBJECT_ID":"2026-151V","EPOCH":"2026-07-20T06:00:04.000320","CLASSIFICATION_TYPE":"U","MEAN_MOTION":15.34307302,"ECCENTRICITY":0.00106306,"INCLINATION":51.8701,"RA_OF_ASC_NODE":156.1947,"ARG_OF_PERICENTER":188.1856,"MEAN_ANOMALY":9.6571,"EPHEMERIS_TYPE":0,"NORAD_CAT_ID":69782,"ELEMENT_SET_NO":999,"REV_AT_EPOCH":130,"BSTAR":0.0010735969,"MEAN_MOTION_DOT":0.00036055,"MEAN_MOTION_DDOT":0}]}
