KUIPER-00589            
1 69767U 26151E   26201.25703660 -.00371906  00000+0 -10858-1 0  9990
2 69767  51.8760 155.9140 0003195 140.5115 219.6104 15.36279970  2794
KUIPER-00598            
1 69768U 26151F   26201.25004630  .00038831  00000+0  11556-2 0  9994
2 69768  51.8648 156.2076 0008317 178.0238  10.2557 15.34310036  3330
KUIPER-00604            
1 69769U 26151G   26201.24672719  .00009215  00000+0  25018-3 0  9996
2 69769  51.8802 155.8461 0002716 120.8147 239.3108 15.38315790  2798
KUIPER-00609            
1 69770U 26151H   26201.24192385  .00008260  00000+0  22253-3 0  9991
2 69770  51.8804 155.8143 0001272  63.9706 296.1412 15.38707862  2797
KUIPER-00611            
1 69771U 26151J   26201.24424756  .00007814  00000+0  21235-3 0  9995
2 69771  51.8808 155.8257 0001603 115.2250 244.8904 15.38523167  2791
KUIPER-00612            
1 69772U 26151K   26201.25019710  .00013239  00000+0  35810-3 0  9999
2 69772  51.8793 155.8697 0003657 133.9585 226.1704 15.38023691  2790
KUIPER-00614            
1 69773U 26151L   26201.24774564  .00011574  00000+0  31241-3 0  9998
2 69773  51.8802 155.8512 0002617 136.9156 223.2037 15.38227164  2798
KUIPER-00615            
1 69774U 26151M   26201.25853265  .00008499  00000+0  23917-3 0  9999
2 69774  51.8782 155.9235 0006020 164.4270 195.6903 15.37300031  2792
KUIPER-00616            
1 69775U 26151N   26201.24569665  .00021794  00000+0  57488-3 0  9990
2 69775  51.8790 155.8412 0002693 130.5594 229.5628 15.38413204  2792
KUIPER-00617            
1 69776U 26151P   26201.25179911  .00011522  00000+0  31469-3 0  9992
2 69776  51.8803 155.8794 0003857 153.1279 206.9908 15.37864574  2794
KUIPER-00619            
1 69777U 26151Q   26201.24305739  .00013526  00000+0  35869-3 0  9995
2 69777  51.8806 155.8230 0001699  83.2699 276.8482 15.38618287  2796
KUIPER-00621            
1 69778U 26151R   26201.11571248  .00754204  00000+0  17768-1 0  9993
2 69778  51.8809 156.4708 0007088 216.8278 143.2223 15.39219047  2772
KUIPER-00622            
1 69779U 26151S   26201.26120593  .00011148  00000+0  31335-3 0  9994
2 69779  51.8741 155.9390 0006933 163.9431 196.1776 15.36992197  2793
KUIPER-00623            
1 69780U 26151T   26198.26556190  .00133416  00000+0  34980-2 0  9998
2 69780  51.8777 170.3650 0006129 146.6000 213.5375 15.37672053  2337
KUIPER-00626            
1 69781U 26151U   26201.27677885  .00014427  00000+0  43291-3 0  9996
2 69781  51.8726 156.0382 0010113 180.8765 179.2204 15.34653537  2793
KUIPER-00627            
1 69782U 26151V   26201.25004630  .00036055  00000+0  10736-2 0  9995
2 69782  51.8701 156.1947 0010630 188.1856   9.6571 15.34307302  1306
